STARLINK-1663           
1 46535U 20070D   23249.34340820  .00019401  00000+0  13170-2 0  9994
2 46535  53.0540 325.7705 0001519  85.5814 274.5348 15.06422563161553
STARLINK-1672           
1 46537U 20070F   23249.23651576  .00014584  00000+0  99558-3 0  9999
2 46537  53.0534 326.2494 0001420  92.1355 267.9796 15.06414552161231
STARLINK-1678           
1 46538U 20070G   23248.94901889  .00018672  00000+0  12689-2 0  9993
2 46538  53.0536 327.5414 0001532  86.8926 273.2239 15.06406042161189
STARLINK-1687           
1 46541U 20070K   23249.12777991  .00012448  00000+0  85308-3 0  9997
2 46541  53.0532 306.7365 0000930  85.3612 274.7483 15.06399247161781
STARLINK-1692           
1 46542U 20070L   23248.26711030  .00003706  00000+0  26763-3 0  9991
2 46542  53.0546 330.6021 0001256  81.3618 278.7513 15.06385513161392
STARLINK-1693           
1 46543U 20070M   23249.24757103  .00017099  00000+0  11638-2 0  9996
2 46543  53.0547 326.1983 0001331  87.1486 272.9655 15.06407334161548
STARLINK-1694           
1 46544U 20070N   23248.57993894  .00007638  00000+0  53148-3 0  9992
2 46544  53.0555 314.1962 0000799 117.1085 242.9986 15.06370208161642
STARLINK-1696           
1 46545U 20070P   23248.95270609  .00019178  00000+0  13018-2 0  9990
2 46545  53.0542 327.5208 0001122  88.8592 271.2526 15.06430521161480
STARLINK-1697           
1 46546U 20070Q   23249.33603653  .00017659  00000+0  12008-2 0  9993
2 46546  53.0538 325.8045 0001444  91.4818 268.6336 15.06420524161249
STARLINK-1698           
1 46547U 20070R   23249.23188166  .00020304  00000+0  13772-2 0  9990
2 46547  53.0533 326.2621 0001251  78.9956 281.1174 15.06423255161546
STARLINK-1699           
1 46548U 20070S   23249.37657760  .00016926  00000+0  11518-2 0  9998
2 46548  53.0535 325.6222 0001354  88.6407 271.4737 15.06421757161566
STARLINK-1700           
1 46549U 20070T   23249.27337536  .00004486  00000+0  31990-3 0  9999
2 46549  53.0559 326.0825 0001435  92.3436 267.7717 15.06397641161235
STARLINK-1701           
1 46550U 20070U   23248.99324764  .00008315  00000+0  57651-3 0  9995
2 46550  53.0539 327.3435 0001354  90.9336 269.1808 15.06394605161503
STARLINK-1664           
1 46553U 20070X   23248.11875200  .00002788  00000+0  20610-3 0  9991
2 46553  53.0539 301.2749 0001384  91.3147 268.8001 15.06382496161778
STARLINK-1671           
1 46554U 20070Y   23248.96698360  .00004717  00000+0  33540-3 0  9995
2 46554  53.0547 312.4567 0001309  94.5423 265.5716 15.06392361161701
STARLINK-1676           
1 46556U 20070AA  23249.35814853  .00013577  00000+0  92822-3 0  9990
2 46556  53.0543 325.6980 0001321  91.6156 268.4984 15.06416779161562
STARLINK-1679           
1 46557U 20070AB  23248.20766889  .00012601  00000+0  86399-3 0  9998
2 46557  53.0549 315.8662 0001561 103.6690 256.4473 15.06372092161581
STARLINK-1680           
1 46558U 20070AC  23248.87853481  .00004092  00000+0  29365-3 0  9992
2 46558  53.0542 312.8529 0001239  91.7112 268.4019 15.06376064161696
STARLINK-1681           
1 46559U 20070AD  23248.53431370  .00002359  00000+0  17726-3 0  9997
2 46559  53.0539 299.3917 0001335  93.2390 266.8752 15.06395449161835
STARLINK-1709           
1 46561U 20070AF  23249.17613739  .00004835  00000+0  34327-3 0  9999
2 46561  53.0540 311.5508 0001473  89.5280 270.5878 15.06398964161737
STARLINK-1714           
1 46562U 20070AG  23248.57763426  .00010947  00000+0  75284-3 0  9990
2 46562  53.0545 309.1951 0001533  92.5437 267.5728 15.06390875161400
STARLINK-1730           
1 46563U 20070AH  23248.89188542  .00010481  00000+0  72147-3 0  9994
2 46563  53.0538 307.7987 0001620  87.3875 272.7300 15.06401058161760
STARLINK-1733           
1 46564U 20070AJ  23248.20998397  .00007627  00000+0  53064-3 0  9992
2 46564  53.0538 310.8602 0001344  92.9419 267.1724 15.06382220161654
STARLINK-1735           
1 46565U 20070AK  23249.11672060  .00008734  00000+0  60446-3 0  9992
2 46565  53.0533 306.7875 0001411  91.5834 268.5317 15.06402652161483
STARLINK-1740           
1 46566U 20070AL  23249.16832697  .00015321  00000+0  10448-2 0  9998
2 46566  53.0525 306.5560 0001538  90.6646 269.4519 15.06413563161471
STARLINK-1741           
1 46567U 20070AM  23249.13146845  .00007370  00000+0  51314-3 0  9992
2 46567  53.0538 306.7198 0001346  88.6980 271.4163 15.06398818161798
STARLINK-1747           
1 46569U 20070AP  23248.88081456  .00012246  00000+0  83915-3 0  9991
2 46569  53.0540 307.8456 0001266  88.7069 271.4065 15.06419514161453
STARLINK-1748           
1 46570U 20070AQ  23249.03584587  .00012300  00000+0  48504-3 0  9990
2 46570  53.0266 273.8515 0000597 302.3160  57.7779 15.25962583162257
STARLINK-1531           
1 46572U 20070AS  23249.18396311  .00012565  00000+0  86064-3 0  9990
2 46572  53.0536 326.4701 0001292  84.9885 275.1251 15.06411780161539
STARLINK-1660           
1 46574U 20070AU  23249.14758784  .00005605  00000+0  39488-3 0  9999
2 46574  53.0542 311.6494 0001453  86.4144 273.7011 15.06402488161721
STARLINK-1675           
1 46575U 20070AV  23248.53987375  .00003701  00000+0  26732-3 0  9995
2 46575  53.0542 289.3738 0001457  94.2137 265.9019 15.06390106161978
STARLINK-1677           
1 46576U 20070AW  23249.14022257  .00011903  00000+0  81653-3 0  9999
2 46576  53.0547 311.6801 0001355  97.3807 262.7336 15.06406091161720
STARLINK-1682           
1 46577U 20070AX  23249.16970735  .00006818  00000+0  47618-3 0  9997
2 46577  53.0544 311.5491 0001267  96.6992 263.4141 15.06398455161727
STARLINK-1683           
1 46578U 20070AY  23248.15561327  .00001041  00000+0  88793-4 0  9992
2 46578  53.0543 301.1480 0001175 104.6565 255.4554 15.06395916161485
STARLINK-1705           
1 46579U 20070AZ  23248.95592310  .00009388  00000+0  64823-3 0  9996
2 46579  53.0535 312.5088 0001323  88.5869 271.5271 15.06402000161678
STARLINK-1708           
1 46580U 20070BA  23249.13284889  .00006270  00000+0  43948-3 0  9990
2 46580  53.0531 311.7163 0001339  97.0288 263.0853 15.06396067161732
STARLINK-1712           
1 46581U 20070BB  23248.89925553  .00005289  00000+0  37378-3 0  9992
2 46581  53.0545 307.7635 0001428  84.4077 275.7074 15.06394606161756
STARLINK-1728           
1 46582U 20070BC  23249.14989767  .00012659  00000+0  86701-3 0  9992
2 46582  53.0537 306.6379 0001278  90.9831 269.1305 15.06408202161790
STARLINK-1729           
1 46583U 20070BD  23249.26600254  .00013773  00000+0  94135-3 0  9995
2 46583  53.0546 326.1199 0001283  89.3837 270.7299 15.06413221161542
STARLINK-1732           
1 46584U 20070BE  23248.88819139  .00006609  00000+0  46212-3 0  9990
2 46584  53.0535 307.8146 0001483  87.5315 272.5844 15.06400877161440
STARLINK-1736           
1 46585U 20070BF  23248.17586531  .00012352  00000+0  84697-3 0  9991
2 46585  53.0526 311.0005 0001539  91.7242 268.3923 15.06387287161642
STARLINK-1737           
1 46586U 20070BG  23248.89557128  .00010193  00000+0  70233-3 0  9993
2 46586  53.0546 307.7802 0001651  95.4572 264.6605 15.06393409161430
STARLINK-1746           
1 46588U 20070BJ  23247.88193016  .00006275  00000+0  43986-3 0  9996
2 46588  53.0537 312.3317 0001335  94.1892 265.9249 15.06391388161606
STARLINK-1749           
1 46589U 20070BK  23248.53802380  .00001023  00000+0  87575-4 0  9990
2 46589  53.0552 309.3849 0001387  86.6400 273.4747 15.06393242161707
STARLINK-1755           
1 46591U 20070BM  23249.19044113  .00011248  00000+0  77263-3 0  9990
2 46591  53.0545 306.4539 0001365  93.6083 266.5062 15.06408290161801
FLOCK 4V-18             
1 46597U 20061BG  23248.19586419  .00026039  00000+0  56472-3 0  9998
2 46597  97.3509 322.1399 0002812   4.5284 355.5989 15.44381663161857
FLOCK 4V-19             
1 46609U 20061BH  23249.19773184  .00030997  00000+0  67707-3 0  9991
2 46609  97.3371 321.8083 0000739  53.2164 306.9152 15.44138487161573
GAOFEN 13-01            
1 46610U 20071A   23248.49546837 -.00000374  00000+0  00000+0 0  9995
2 46610   0.4600  90.8683 0001278 356.0276 193.5598  1.00275408 10716
FLOCK 4V-20             
1 46612U 20061BJ  23248.62599853  .00009180  00000+0  30107-3 0  9995
2 46612  97.3537 319.0557 0004220  13.5290 346.6064 15.31832598160756
STARLINK-1715           
1 46671U 20073B   23249.15269592  .00020611  00000+0  13977-2 0  9993
2 46671  53.0555  36.8649 0001455  87.1411 272.9744 15.06422406159541
STARLINK-1716           
1 46672U 20073C   23249.10334727 -.00000534  00000+0 -16958-4 0  9990
2 46672  53.0579  31.8482 0001513  95.5435 264.5727 15.06409127159613
STARLINK-1717           
1 46673U 20073D   23248.75367153  .00002241  00000+0  16931-3 0  9995
2 46673  53.0546  48.5397 0001402  89.5394 270.5756 15.06394942159349
STARLINK-1718           
1 46674U 20073E   23248.39934953  .00001313  00000+0  10706-3 0  9997
2 46674  53.0573  35.0092 0001563  79.6046 280.5119 15.06393244159028
STARLINK-1720           
1 46675U 20073F   23249.12546436  .00001866  00000+0  14414-3 0  9998
2 46675  53.0550  31.7457 0001350  94.3476 265.7667 15.06399178159617
STARLINK-1766           
1 46677U 20073H   23249.38717037  .00013282  00000+0  90849-3 0  9996
2 46677  53.0551  30.5721 0001271  88.5345 271.5789 15.06415333159659
STARLINK-1773           
1 46679U 20073K   23249.32635584  .00012114  00000+0  83051-3 0  9998
2 46679  53.0546  10.8443 0001095  84.4946 275.6168 15.06411214159934
STARLINK-1774           
1 46680U 20073L   23248.73153573  .00003337  00000+0  24285-3 0  9998
2 46680  53.0563  48.5161 0000915  83.2693 276.8400 15.06396963159346
STARLINK-1775           
1 46681U 20073M   23249.16647464  .00014248  00000+0  97319-3 0  9995
2 46681  53.0564  46.5601 0000423 117.3779 242.7253 15.06410421159404
STARLINK-1776           
1 46682U 20073N   23248.46246578  .00002362  00000+0  17747-3 0  9990
2 46682  53.0552  49.7207 0001478  99.9799 260.1357 15.06394236158826
